start=new Date('2022-04-08T00:00:00.000Z').valueOf();
sats=[{"ELEMENT_SET_NO":"999","REF_FRAME":"TEME","TIME_SYSTEM":"UTC","FILE":"3392478","ECCENTRICITY":"0.00017430","OBJECT_NAME":"STARLINK-1395","SEMIMAJOR_AXIS":"6925.284","DECAY_DATE":null,"RA_OF_ASC_NODE":"4.2509","MEAN_MOTION_DDOT":"0.0000000000000","REV_AT_EPOCH":"10305","EPHEMERIS_TYPE":"0","CLASSIFICATION_TYPE":"U","LAUNCH_DATE":"2020-06-04","NORAD_CAT_ID":"45680","EPOCH":"2022-04-07T21:13:25.269600","OBJECT_TYPE":"PAYLOAD","COUNTRY_CODE":"US","INCLINATION":"53.0560","BSTAR":"0.00072135000000","PERIAPSIS":"545.942","MEAN_MOTION_DOT":"0.00010485","PERIOD":"95.591","SITE":"AFETR","MEAN_ELEMENT_THEORY":"SGP4","GP_ID":"200699745","MEAN_MOTION":"15.06421089","CENTER_NAME":"EARTH","ARG_OF_PERICENTER":"90.8478","APOAPSIS":"548.356","TLE_LINE1":"1 45680U 20035Z   22097.88432025  .00010485  00000-0  72135-3 0  9994","TLE_LINE2":"2 45680  53.0560   4.2509 0001743  90.8478 269.2711 15.06421089103058","RCS_SIZE":"LARGE","MEAN_ANOMALY":"269.2711","OBJECT_ID":"2020-035Z"},{"OBJECT_NAME":"STARLINK-1396","DECAY_DATE":null,"SEMIMAJOR_AXIS":"6925.326","RA_OF_ASC_NODE":"4.2542","REV_AT_EPOCH":"10306","MEAN_MOTION_DDOT":"0.0000000000000","REF_FRAME":"TEME","ELEMENT_SET_NO":"999","ECCENTRICITY":"0.00016890","FILE":"3392478","TIME_SYSTEM":"UTC","MEAN_ELEMENT_THEORY":"SGP4","GP_ID":"200698494","PERIOD":"95.592","MEAN_MOTION_DOT":"0.00004105","SITE":"AFETR","MEAN_MOTION":"15.06407283","APOAPSIS":"548.361","TLE_LINE1":"1 45681U 20035AA  22097.88063846  .00004105  00000-0  29426-3 0  9993","TLE_LINE2":"2 45681  53.0568   4.2542 0001689  62.2431 297.8729 15.06407283103062","ARG_OF_PERICENTER":"62.2431","CENTER_NAME":"EARTH","MEAN_ANOMALY":"297.8729","RCS_SIZE":"LARGE","OBJECT_ID":"2020-035AA","LAUNCH_DATE":"2020-06-04","EPHEMERIS_TYPE":"0","CLASSIFICATION_TYPE":"U","EPOCH":"2022-04-07T21:08:07.162944","OBJECT_TYPE":"PAYLOAD","COUNTRY_CODE":"US","NORAD_CAT_ID":"45681","INCLINATION":"53.0568","BSTAR":"0.00029426000000","PERIAPSIS":"546.022"},{"RA_OF_ASC_NODE":"4.2137","REV_AT_EPOCH":"10305","MEAN_MOTION_DDOT":"0.0000000000000","OBJECT_NAME":"STARLINK-1397","DECAY_DATE":null,"SEMIMAJOR_AXIS":"6925.355","ECCENTRICITY":"0.00019100","FILE":"3392478","TIME_SYSTEM":"UTC","ELEMENT_SET_NO":"999","REF_FRAME":"TEME","APOAPSIS":"548.543","TLE_LINE1":"1 45682U 20035AB  22097.88799073  .00002271  00000-0  17134-3 0  9997","TLE_LINE2":"2 45682  53.0544   4.2137 0001910  55.4714 304.6455 15.06397768103050","CENTER_NAME":"EARTH","ARG_OF_PERICENTER":"55.4714","MEAN_ANOMALY":"304.6455","RCS_SIZE":"LARGE","OBJECT_ID":"2020-035AB","MEAN_ELEMENT_THEORY":"SGP4","GP_ID":"200698744","PERIOD":"95.592","MEAN_MOTION_DOT":"0.00002271","SITE":"AFETR","MEAN_MOTION":"15.06397768","INCLINATION":"53.0544","BSTAR":"0.00017134000000","PERIAPSIS":"545.898","LAUNCH_DATE":"2020-06-04","EPHEMERIS_TYPE":"0","CLASSIFICATION_TYPE":"U","EPOCH":"2022-04-07T21:18:42.399072","OBJECT_TYPE":"PAYLOAD","COUNTRY_CODE":"US","NORAD_CAT_ID":"45682"},{"TLE_LINE2":"2 45683  53.0553   4.9169 0001525  67.9466 292.1685 15.06403386103046","TLE_LINE1":"1 45683U 20035AC  22097.73688611  .00001023  00000-0  87548-4 0  9998","APOAPSIS":"548.259","CENTER_NAME":"EARTH","ARG_OF_PERICENTER":"67.9466","OBJECT_ID":"2020-035AC","MEAN_ANOMALY":"292.1685","RCS_SIZE":"LARGE","GP_ID":"200698990","MEAN_ELEMENT_THEORY":"SGP4","SITE":"AFETR","MEAN_MOTION_DOT":"0.00001023","PERIOD":"95.592","MEAN_MOTION":"15.06403386","INCLINATION":"53.0553","PERIAPSIS":"546.147","BSTAR":"0.00008754800000","LAUNCH_DATE":"2020-06-04","CLASSIFICATION_TYPE":"U","EPHEMERIS_TYPE":"0","COUNTRY_CODE":"US","OBJECT_TYPE":"PAYLOAD","EPOCH":"2022-04-07T17:41:06.959904","NORAD_CAT_ID":"45683","RA_OF_ASC_NODE":"4.9169","REV_AT_EPOCH":"10304","MEAN_MOTION_DDOT":"0.0000000000000","OBJECT_NAME":"STARLINK-1399","DECAY_DATE":null,"SEMIMAJOR_AXIS":"6925.338","ECCENTRICITY":"0.00015250","FILE":"3392478","TIME_SYSTEM":"UTC","ELEMENT_SET_NO":"999","REF_FRAME":"TEME"},{"OBJECT_NAME":"STARLINK-1401","SEMIMAJOR_AXIS":"6925.293","DECAY_DATE":null,"RA_OF_ASC_NODE":"4.1096","MEAN_MOTION_DDOT":"0.0000000000000","REV_AT_EPOCH":"10307","ELEMENT_SET_NO":"999","REF_FRAME":"TEME","TIME_SYSTEM":"UTC","ECCENTRICITY":"0.00015140","FILE":"3392478","MEAN_MOTION_DOT":"0.00009597","PERIOD":"95.591","SITE":"AFETR","MEAN_ELEMENT_THEORY":"SGP4","GP_ID":"200699245","MEAN_MOTION":"15.06418030","CENTER_NAME":"EARTH","ARG_OF_PERICENTER":"66.9464","TLE_LINE1":"1 45684U 20035AD  22097.91381601  .00009597  00000-0  66200-3 0  9993","APOAPSIS":"548.207","TLE_LINE2":"2 45684  53.0551   4.1096 0001514  66.9464 293.1684 15.06418030103076","RCS_SIZE":"LARGE","MEAN_ANOMALY":"293.1684","OBJECT_ID":"2020-035AD","EPHEMERIS_TYPE":"0","CLASSIFICATION_TYPE":"U","LAUNCH_DATE":"2020-06-04","NORAD_CAT_ID":"45684","EPOCH":"2022-04-07T21:55:53.703264","COUNTRY_CODE":"US","OBJECT_TYPE":"PAYLOAD","INCLINATION":"53.0551","BSTAR":"0.00066200000000","PERIAPSIS":"546.110"},{"LAUNCH_DATE":"2020-06-04","EPHEMERIS_TYPE":"0","CLASSIFICATION_TYPE":"U","EPOCH":"2022-04-07T21:50:34.610784","OBJECT_TYPE":"PAYLOAD","COUNTRY_CODE":"US","NORAD_CAT_ID":"45685","INCLINATION":"53.0549","BSTAR":"0.00080705000000","PERIAPSIS":"545.972","MEAN_ELEMENT_THEORY":"SGP4","GP_ID":"200697994","MEAN_MOTION_DOT":"0.00011765","PERIOD":"95.591","SITE":"AFETR","MEAN_MOTION":"15.06417191","APOAPSIS":"548.349","TLE_LINE1":"1 45685U 20035AE  22097.91012281  .00011765  00000-0  80705-3 0  9995","TLE_LINE2":"2 45685  53.0549   4.1453 0001716  68.3477 291.7695 15.06417191103078","CENTER_NAME":"EARTH","ARG_OF_PERICENTER":"68.3477","RCS_SIZE":"LARGE","MEAN_ANOMALY":"291.7695","OBJECT_ID":"2020-035AE","REF_FRAME":"TEME","ELEMENT_SET_NO":"999","ECCENTRICITY":"0.00017160","FILE":"3392478","TIME_SYSTEM":"UTC","OBJECT_NAME":"STARLINK-1402","DECAY_DATE":null,"SEMIMAJOR_AXIS":"6925.296","RA_OF_ASC_NODE":"4.1453","REV_AT_EPOCH":"10307","MEAN_MOTION_DDOT":"0.0000000000000"},{"OBJECT_NAME":"STARLINK-1404","SEMIMAJOR_AXIS":"6925.355","DECAY_DATE":null,"RA_OF_ASC_NODE":"4.1570","MEAN_MOTION_DDOT":"0.0000000000000","REV_AT_EPOCH":"10307","ELEMENT_SET_NO":"999","REF_FRAME":"TEME","TIME_SYSTEM":"UTC","FILE":"3392478","ECCENTRICITY":"0.00017090","SITE":"AFETR","PERIOD":"95.592","MEAN_MOTION_DOT":"0.00003615","GP_ID":"200698244","MEAN_ELEMENT_THEORY":"SGP4","MEAN_MOTION":"15.06397795","CENTER_NAME":"EARTH","ARG_OF_PERICENTER":"60.5097","TLE_LINE2":"2 45686  53.0553   4.1570 0001709  60.5097 299.6062 15.06397795103070","APOAPSIS":"548.404","TLE_LINE1":"1 45686U 20035AF  22097.90275606  .00003615  00000-0  26148-3 0  9993","OBJECT_ID":"2020-035AF","RCS_SIZE":"LARGE","MEAN_ANOMALY":"299.6062","CLASSIFICATION_TYPE":"U","EPHEMERIS_TYPE":"0","LAUNCH_DATE":"2020-06-04","NORAD_CAT_ID":"45686","OBJECT_TYPE":"PAYLOAD","COUNTRY_CODE":"US","EPOCH":"2022-04-07T21:39:58.123584","INCLINATION":"53.0553","PERIAPSIS":"546.037","BSTAR":"0.00026148000000"},{"TLE_LINE2":"2 45688  53.0548   4.1790 0001461  57.1742 302.9388 15.06411524103069","APOAPSIS":"548.190","TLE_LINE1":"1 45688U 20035AH  22097.89537966  .00015181  00000-0  10355-2 0  9996","ARG_OF_PERICENTER":"57.1742","CENTER_NAME":"EARTH","OBJECT_ID":"2020-035AH","RCS_SIZE":"LARGE","MEAN_ANOMALY":"302.9388","GP_ID":"200699491","MEAN_ELEMENT_THEORY":"SGP4","SITE":"AFETR","PERIOD":"95.591","MEAN_MOTION_DOT":"0.00015181","MEAN_MOTION":"15.06411524","INCLINATION":"53.0548","PERIAPSIS":"546.166","BSTAR":"0.00103550000000","LAUNCH_DATE":"2020-06-04","CLASSIFICATION_TYPE":"U","EPHEMERIS_TYPE":"0","COUNTRY_CODE":"US","OBJECT_TYPE":"PAYLOAD","EPOCH":"2022-04-07T21:29:20.802624","NORAD_CAT_ID":"45688","RA_OF_ASC_NODE":"4.1790","REV_AT_EPOCH":"10306","MEAN_MOTION_DDOT":"0.0000000000000","OBJECT_NAME":"STARLINK-1408","DECAY_DATE":null,"SEMIMAJOR_AXIS":"6925.313","FILE":"3392478","ECCENTRICITY":"0.00014610","TIME_SYSTEM":"UTC","REF_FRAME":"TEME","ELEMENT_SET_NO":"999"},{"GP_ID":"200699746","MEAN_ELEMENT_THEORY":"SGP4","SITE":"AFETR","PERIOD":"95.592","MEAN_MOTION_DOT":"0.00006545","MEAN_MOTION":"15.06398048","TLE_LINE2":"2 45689  53.0559   4.3763 0001482  61.8628 298.2511 15.06398048102971","TLE_LINE1":"1 45689U 20035AJ  22097.85483731  .00006545  00000-0  45791-3 0  9990","APOAPSIS":"548.246","ARG_OF_PERICENTER":"61.8628","CENTER_NAME":"EARTH","OBJECT_ID":"2020-035AJ","RCS_SIZE":"LARGE","MEAN_ANOMALY":"298.2511","LAUNCH_DATE":"2020-06-04","CLASSIFICATION_TYPE":"U","EPHEMERIS_TYPE":"0","COUNTRY_CODE":"US","OBJECT_TYPE":"PAYLOAD","EPOCH":"2022-04-07T20:30:57.943584","NORAD_CAT_ID":"45689","INCLINATION":"53.0559","PERIAPSIS":"546.193","BSTAR":"0.00045791000000","OBJECT_NAME":"STARLINK-1413","DECAY_DATE":null,"SEMIMAJOR_AXIS":"6925.355","RA_OF_ASC_NODE":"4.3763","REV_AT_EPOCH":"10297","MEAN_MOTION_DDOT":"0.0000000000000","ELEMENT_SET_NO":"999","REF_FRAME":"TEME","FILE":"3392478","ECCENTRICITY":"0.00014820","TIME_SYSTEM":"UTC"},{"BSTAR":"0.00010429000000","PERIAPSIS":"548.727","INCLINATION":"53.0020","NORAD_CAT_ID":"45690","EPOCH":"2022-04-07T20:41:28.747392","COUNTRY_CODE":"US","OBJECT_TYPE":"PAYLOAD","EPHEMERIS_TYPE":"0","CLASSIFICATION_TYPE":"U","LAUNCH_DATE":"2020-06-04","RCS_SIZE":"LARGE","MEAN_ANOMALY":"288.7053","OBJECT_ID":"2020-035AK","CENTER_NAME":"EARTH","ARG_OF_PERICENTER":"71.4085","TLE_LINE1":"1 45690U 20035AK  22097.86213828  .00001241  00000-0  10429-3 0  9999","APOAPSIS":"550.643","TLE_LINE2":"2 45690  53.0020   4.3537 0001383  71.4085 288.7053 15.05593872103022","MEAN_MOTION":"15.05593872","MEAN_MOTION_DOT":"0.00001241","PERIOD":"95.643","SITE":"AFETR","MEAN_ELEMENT_THEORY":"SGP4","GP_ID":"200698495","TIME_SYSTEM":"UTC","ECCENTRICITY":"0.00013830","FILE":"3392478","ELEMENT_SET_NO":"999","REF_FRAME":"TEME","MEAN_MOTION_DDOT":"0.0000000000000","REV_AT_EPOCH":"10302","RA_OF_ASC_NODE":"4.3537","SEMIMAJOR_AXIS":"6927.820","DECAY_DATE":null,"OBJECT_NAME":"STARLINK-1414"}];
